SAUDISAT 1C (SO-50)     
1 27607U 02058C   26068.61742404  .00002222  00000+0  27919-3 0  9995
2 27607  64.5524  76.9957 0075248 280.7497  78.5144 14.82783142249695
STARLINK-5527           
1 56497U 23064BB  26068.47617280  .00001077  00000+0  98056-4 0  9999
2 56497  69.9995 104.8725 0003128 269.9984  90.0817 14.98325687156200
